[{"OBJECT_NAME":"GNOMES-5","OBJECT_ID":"2024-149DL","EPOCH":"2026-03-09T22:53:01.372704","MEAN_MOTION":15.00280005,"ECCENTRICITY":0.00076217,"INCLINATION":97.6857,"RA_OF_ASC_NODE":148.0235,"ARG_OF_PERICENTER":89.6268,"MEAN_ANOMALY":270.5829,"EPHEMERIS_TYPE":0,"CLASSIFICATION_TYPE":"U","NORAD_CAT_ID":60574,"ELEMENT_SET_NO":999,"REV_AT_EPOCH":8527,"BSTAR":0.00047414566,"MEAN_MOTION_DOT":5.885e-5,"MEAN_MOTION_DDOT":0},{"OBJECT_NAME":"STARLINK-34646","OBJECT_ID":"2025-150G","EPOCH":"2026-03-09T16:00:03.000096","MEAN_MOTION":14.98326066,"ECCENTRICITY":0.00033275,"INCLINATION":70.001,"RA_OF_ASC_NODE":134.5975,"ARG_OF_PERICENTER":275.9537,"MEAN_ANOMALY":355.8693,"EPHEMERIS_TYPE":0,"CLASSIFICATION_TYPE":"U","NORAD_CAT_ID":64796,"ELEMENT_SET_NO":999,"REV_AT_EPOCH":562,"BSTAR":0.0016122573,"MEAN_MOTION_DOT":0.00019195,"MEAN_MOTION_DDOT":0}]
